GPS BIIA-23 (PRN 18)    
1 22877U 93068A   18348.54374390 -.00000050  00000-0  00000+0 0  9996
2 22877  54.5527  76.1094 0147441  78.1415 231.0469  2.00570725184163
GPS BIIR-2  (PRN 13)    
1 24876U 97035A   18348.51197105  .00000058  00000-0  00000+0 0  9996
2 24876  55.4699 205.6984 0034623  79.5898 280.8767  2.00564352156765
GPS BIIR-3  (PRN 11)    
1 25933U 99055A   18347.61393559 -.00000078  00000-0  00000+0 0  9999
2 25933  52.0085  53.8841 0164971 106.1484 253.0809  2.00563114140560
GPS BIIR-4  (PRN 20)    
1 26360U 00025A   18348.57475090  .00000056  00000-0  00000+0 0  9995
2 26360  53.2632 132.1406 0043010 127.9318 251.1827  2.00563271136277
GPS BIIR-5  (PRN 28)    
1 26407U 00040A   18346.87212045 -.00000050  00000-0  00000+0 0  9999
2 26407  56.3801 323.8993 0198117 274.5499 291.3609  2.00561550134910
GPS BIIR-6  (PRN 14)    
1 26605U 00071A   18348.62352505  .00000063  00000-0  00000+0 0  9997
2 26605  55.0437 203.2145 0102059 248.8895  51.3600  2.00565773132559
GPS BIIR-8  (PRN 16)    
1 27663U 03005A   18348.58278512 -.00000044  00000-0  00000+0 0  9992
2 27663  56.4413 323.5987 0101679  28.6629  91.5117  2.00555984116317
GPS BIIR-9  (PRN 21)    
1 27704U 03010A   18348.57441763 -.00000050  00000-0  00000+0 0  9990
2 27704  54.2256  75.6370 0248272 273.8195 165.6405  2.00575447115114
GPS BIIR-10 (PRN 22)    
1 28129U 03058A   18348.20878902  .00000058  00000-0  00000+0 0  9990
2 28129  53.0756 134.9764 0072260 276.6691  82.4936  2.00567794109808
GPS BIIR-11 (PRN 19)    
1 28190U 04009A   18348.31071365 -.00000074  00000-0  00000+0 0  9994
2 28190  56.2287  24.4108 0091674  75.4465 358.3951  2.00571336107985
GPS BIIR-12 (PRN 23)    
1 28361U 04023A   18348.60796563  .00000068  00000-0  00000+0 0  9998
2 28361  54.0514 197.7720 0127983 228.0344 333.5706  2.00562697106075
GPS BIIR-13 (PRN 02)    
1 28474U 04045A   18348.51650793 -.00000051  00000-0  00000+0 0  9994
2 28474  54.5888  75.3221 0188108 256.8248 242.3133  2.00570731103430
GPS BIIRM-1 (PRN 17)    
1 28874U 05038A   18347.67543701 -.00000076  00000-0  00000+0 0  9994
2 28874  56.3612  21.7670 0131719 259.9509 100.6015  2.00566010 96826
GPS BIIRM-2 (PRN 31)    
1 29486U 06042A   18348.61008973 -.00000023  00000-0  00000+0 0  9994
2 29486  55.0852 260.4394 0091323 355.2927 236.6984  2.00548995 89552
GPS BIIRM-3 (PRN 12)    
1 29601U 06052A   18348.22870756 -.00000045  00000-0  00000+0 0  9991
2 29601  56.4193 322.5292 0069613  57.4203 303.2545  2.00557434 88467
GPS BIIRM-4 (PRN 15)    
1 32260U 07047A   18348.04697840  .00000065  00000-0  00000+0 0  9993
2 32260  53.1752 193.6534 0109642  41.8003 319.0963  2.00570721 81832
GPS BIIRM-5 (PRN 29)    
1 32384U 07062A   18348.57212231 -.00000071  00000-0  00000+0 0  9990
2 32384  56.4405  22.3557 0003861  92.8151  63.5421  2.00574008 80582
GPS BIIRM-6 (PRN 07)    
1 32711U 08012A   18345.96010112 -.00000018  00000-0  00000+0 0  9995
2 32711  54.8232 259.7801 0122520 218.7621 140.4054  2.00568950 78717
GPS BIIRM-8 (PRN 05)    
1 35752U 09043A   18348.51298554  .00000067  00000-0  00000+0 0  9993
2 35752  54.3695 137.3941 0054347  39.7258  29.2871  2.00572881 68355
GPS BIIF-1  (PRN 25)    
1 36585U 10022A   18348.50241637 -.00000045  00000-0  00000+0 0  9993
2 36585  55.7038 318.9505 0075742  47.3994 124.2927  2.00578316 62590
GPS BIIF-2  (PRN 01)    
1 37753U 11036A   18348.54458006 -.00000044  00000-0  00000+0 0  9990
2 37753  55.7863  79.0633 0080545  38.5616 244.8520  2.00565178 54288
GPS BIIF-3  (PRN 24)    
1 38833U 12053A   18347.13671364 -.00000019  00000-0  00000+0 0  9990
2 38833  53.8550 256.1151 0077433  30.9015 329.6078  2.00555662 45326
GPS BIIF-4  (PRN 27)    
1 39166U 13023A   18347.99929027 -.00000074  00000-0  00000+0 0  9995
2 39166  56.0514  18.5916 0061930  22.4449 337.8788  2.00560850 40871
GPS BIIF-5  (PRN 30)    
1 39533U 14008A   18347.99702683 -.00000025  00000-0  00000+0 0  9990
2 39533  53.9926 261.4532 0036104 191.9318 168.0310  2.00565832 35242
GPS BIIF-6  (PRN 06)    
1 39741U 14026A   18347.77924380 -.00000044  00000-0  00000+0 0  9998
2 39741  55.7675  78.6182 0014304 286.7529  73.1091  2.00554084 33515
GPS BIIF-7  (PRN 09)    
1 40105U 14045A   18347.86618871  .00000060  00000-0  00000+0 0  9997
2 40105  54.5777 198.0045 0012164  97.4934 262.7138  2.00551928 31964
GPS BIIF-8  (PRN 03)    
1 40294U 14068A   18348.23916134  .00000069  00000-0  00000+0 0  9995
2 40294  55.1212 138.8134 0017321  34.6282 325.4718  2.00569652 30192
GPS BIIF-9  (PRN 26)    
1 40534U 15013A   18347.88000385 -.00000048  00000-0  00000+0 0  9993
2 40534  54.6385 317.5111 0033587 359.4821   0.5162  2.00552978 27254
GPS BIIF-10  (PRN 08)   
1 40730U 15033A   18347.53622452 -.00000077  00000-0  00000+0 0  9992
2 40730  55.5789  18.0342 0040412 333.6571  26.1902  2.00564869 25009
GPS BIIF-11  (PRN 10)   
1 41019U 15062A   18348.08757976  .00000068  00000-0  00000+0 0  9995
2 41019  55.1243 138.6286 0041854 202.0405 157.7668  2.00564660 22830
GPS BIIF-12  (PRN 32)   
1 41328U 16007A   18348.17921740  .00000064  00000-0  00000+0 0  9996
2 41328  54.8248 198.3315 0024907 214.0058 145.9035  2.00556349 20893
